IRIDIUM 126             
1 42809U 17039G   23306.71526549  .00000496  00000+0  17010-3 0  9996
2 42809  86.4014  33.7727 0001904  92.7592 267.3822 14.34219923332719
IRIDIUM 124             
1 42810U 17039H   23306.59349587  .00000131  00000+0  32835-4 0  9998
2 42810  86.4481 330.6043 0002396  96.2262 263.9212 14.43271586336990
IRIDIUM 128             
1 42811U 17039J   23306.84553270  .00000547  00000+0  18825-3 0  9996
2 42811  86.3969  65.2400 0001862  97.1357 263.0051 14.34214211332766
IRIDIUM 121             
1 42812U 17039K   23306.73429225  .00000483  00000+0  16549-3 0  9997
2 42812  86.4015  33.7862 0002044  90.1892 269.9538 14.34219395332596
IRIDIUM 133             
1 42955U 17061A   23306.87725311  .00000343  00000+0  11547-3 0  9998
2 42955  86.3973  65.3214 0001793  88.0102 272.1299 14.34217301317563
IRIDIUM 100             
1 42956U 17061B   23306.87091092  .00000610  00000+0  21061-3 0  9990
2 42956  86.3970  65.2651 0001977  95.0855 265.0566 14.34218497317589
IRIDIUM 122             
1 42957U 17061C   23307.39734483  .00000119  00000+0  35535-4 0  9993
2 42957  86.3968  65.0429 0001872  99.7296 260.4111 14.34217123317649
IRIDIUM 129             
1 42958U 17061D   23307.42271196  .00000527  00000+0  18110-3 0  9997
2 42958  86.3973  65.0894 0001867  96.0376 264.1033 14.34215449317660
